*******************************************************************************
JPL/HORIZONS               1724 Vladimir (1932 DC)         2023-Sep-04 11:13:48
Rec #:    1724 (+COV) Soln.date: 2023-Aug-22_09:37:52   # obs: 5747 (1932-2023)
 
IAU76/J2000 helio. ecliptic osc. elements (au, days, deg., period=Julian yrs):
 
  EPOCH=  2457325.5 ! 2015-Oct-30.00 (TDB)         Residual RMS= .23666
   EC= .0558375709599811   QR= 2.559643715035896   TP= 2457455.4910145537
   OM= 164.0560602928644   W=  298.0336806691252   IN= 12.23928984077026
   A= 2.711020515440786    MA= 331.2976007536481   ADIST= 2.862397315845675
   PER= 4.46383            N= .220802948           ANGMOM= .028279372
   DAN= 2.63346            DDN= 2.7754             L= 102.639715
   B= -10.784871           MOID= 1.59995997        TP= 2016-Mar-07.9910145537
 
Asteroid physical parameters (km, seconds, rotational period in hours):
   GM= n.a.                RAD= 19.238             ROTPER= 12.582
   H= 11.47                G= .150                 B-V= .693
                           ALBEDO= .037            STYP= B

ASTEROID comments: 
1: soln ref.= JPL#62, OCC=0
2: source=ORB
*******************************************************************************


*******************************************************************************
Ephemeris / API_USER Mon Sep  4 11:13:48 2023 Pasadena, USA      / Horizons
*******************************************************************************
Target body name: 1724 Vladimir (1932 DC)         {source: JPL#62}
Center body name: Solar System Barycenter (0)     {source: DE441}
Center-site name: BODY CENTER
*******************************************************************************
Start time      : A.D. 2023-Aug-12 00:00:00.0000 TDB
Stop  time      : A.D. 2023-Aug-13 00:00:00.0000 TDB
Step-size       : 2880 minutes
*******************************************************************************
Center geodetic : 0.0, 0.0, 0.0                   {E-lon(deg),Lat(deg),Alt(km)}
Center cylindric: 0.0, 0.0, 0.0                   {E-lon(deg),Dxy(km),Dz(km)}
Center radii    : (undefined)
Small perturbers: Yes                             {source: SB441-N16}
Output units    : KM-S
Calendar mode   : Mixed Julian/Gregorian
Output type     : GEOMETRIC cartesian states
Output format   : 2 (position and velocity)
Reference frame : Ecliptic of J2000.0
*******************************************************************************
Initial IAU76/J2000 heliocentric ecliptic osculating elements (au, days, deg.):
  EPOCH=  2457325.5 ! 2015-Oct-30.00 (TDB)         Residual RMS= .23666        
   EC= .0558375709599811   QR= 2.559643715035896   TP= 2457455.4910145537      
   OM= 164.0560602928644   W=  298.0336806691252   IN= 12.23928984077026       
  Equivalent ICRF heliocentric cartesian coordinates (au, au/d):
   X= 8.615317408004877E-01  Y= 2.391748122399859E+00  Z= 4.421395144118158E-01
  VX=-1.041418021847221E-02 VY= 3.181498437595357E-03 VZ= 1.276679698517362E-03
Asteroid physical parameters (km, seconds, rotational period in hours):        
   GM= n.a.                RAD= 19.238             ROTPER= 12.582              
   H= 11.47                G= .150                 B-V= .693                   
                           ALBEDO= .037            STYP= B                     
*******************************************************************************
JDTDB
   X     Y     Z
   VX    VY    VZ
*******************************************************************************
$$SOE
2460168.500000000 = A.D. 2023-Aug-12 00:00:00.0000 TDB 
 X = 3.794493881398121E+08 Y =-1.729396679109796E+08 Z = 1.324397914079807E+07
 VX= 6.400241000906001E+00 VY= 1.588391639768425E+01 VZ=-3.695384014556948E+00
$$EOE
*******************************************************************************
 
TIME

  Barycentric Dynamical Time ("TDB" or T_eph) output was requested. This
continuous coordinate time is equivalent to the relativistic proper time
of a clock at rest in a reference frame co-moving with the solar system
barycenter but outside the system's gravity well. It is the independent
variable in the solar system relativistic equations of motion.

  TDB runs at a uniform rate of one SI second per second and is independent
of irregularities in Earth's rotation.
 
CALENDAR SYSTEM

  Mixed calendar mode was active such that calendar dates after AD 1582-Oct-15
(if any) are in the modern Gregorian system. Dates prior to 1582-Oct-5 (if any)
are in the Julian calendar system, which is automatically extended for dates
prior to its adoption on 45-Jan-1 BC.  The Julian calendar is useful for
matching historical dates. The Gregorian calendar more accurately corresponds
to the Earth's orbital motion and seasons. A "Gregorian-only" calendar mode is
available if such physical events are the primary interest.

REFERENCE FRAME AND COORDINATES

  Ecliptic at the standard reference epoch

    Reference epoch: J2000.0
    X-Y plane: adopted Earth orbital plane at the reference epoch
               Note: IAU76 obliquity of 84381.448 arcseconds wrt ICRF X-Y plane
    X-axis   : ICRF
    Z-axis   : perpendicular to the X-Y plane in the directional (+ or -) sense
               of Earth's north pole at the reference epoch.

  Symbol meaning:

    JDTDB    Julian Day Number, Barycentric Dynamical Time
      X      X-component of position vector (km)
      Y      Y-component of position vector (km)
      Z      Z-component of position vector (km)
      VX     X-component of velocity vector (km/sec)                           
      VY     Y-component of velocity vector (km/sec)                           
      VZ     Z-component of velocity vector (km/sec)                           

ABERRATIONS AND CORRECTIONS

 Geometric state vectors have NO corrections or aberrations applied.

Computations by ...

    Solar System Dynamics Group, Horizons On-Line Ephemeris System
    4800 Oak Grove Drive, Jet Propulsion Laboratory
    Pasadena, CA  91109   USA

    General site: https://ssd.jpl.nasa.gov/
    Mailing list: https://ssd.jpl.nasa.gov/email_list.html
    System news : https://ssd.jpl.nasa.gov/horizons/news.html
    User Guide  : https://ssd.jpl.nasa.gov/horizons/manual.html
    Connect     : browser        https://ssd.jpl.nasa.gov/horizons/app.html#/x
                  API            https://ssd-api.jpl.nasa.gov/doc/horizons.html
                  command-line   telnet ssd.jpl.nasa.gov 6775
                  e-mail/batch   https://ssd.jpl.nasa.gov/ftp/ssd/hrzn_batch.txt
                  scripts        https://ssd.jpl.nasa.gov/ftp/ssd/SCRIPTS
    Author      : Jon.D.Giorgini@jpl.nasa.gov
*******************************************************************************
